{
 "type": "Feature",
 "properties": {
  "name": "b_arago_corridor",
  "description": "Carrer d'Arago centred on Carrer de Sardenya, same length and width, east of the Consell de Cent axis",
  "epsg25831_wkt": "POLYGON((430759.0 4583452.1, 431330.8 4584002.4, 431608.2 4583714.3, 431036.4 4583163.9, 430759.0 4583452.1))",
  "url": "/?area=2.17846,41.40463,2.18181,41.40206,2.17503,41.39706,2.17168,41.39963"
 },
 "geometry": {
  "type": "Polygon",
  "coordinates": [
   [
    [
     2.17846,
     41.40463
    ],
    [
     2.18181,
     41.40206
    ],
    [
     2.17503,
     41.39706
    ],
    [
     2.17168,
     41.39963
    ],
    [
     2.17846,
     41.40463
    ]
   ]
  ]
 }
}